#cP2017 12 29  0  0  0.00000000      96 ORBIT IGS14 HLM  IGS
## 1981 432000.00000000   900.00000000 58116 0.0000000000000
+   32   G01G02G03G04G05G06G07G08G09G10G11G12G13G14G15G16G17
+        G18G19G20G21G22G23G24G25G26G27G28G29G30G31G32  0  0
+          0  0  0  0  0  0  0  0  0  0  0  0  0  0  0  0  0
+          0  0  0  0  0  0  0  0  0  0  0  0  0  0  0  0  0
+          0  0  0  0  0  0  0  0  0  0  0  0  0  0  0  0  0
++         2  2  2  0  2  2  2  2  2  2  2  2  2  2  2  2  2
++         2  2  2  2  2  2  2  2  2  2  2  2  2  2  2  0  0
++         0  0  0  0  0  0  0  0  0  0  0  0  0  0  0  0  0
++         0  0  0  0  0  0  0  0  0  0  0  0  0  0  0  0  0
++         0  0  0  0  0  0  0  0  0  0  0  0  0  0  0  0  0
%c G  cc GPS ccc cccc cccc cccc cccc ccccc ccccc ccccc ccccc
%c cc cc ccc ccc cccc cccc cccc cccc ccccc ccccc ccccc ccccc
%f  1.2500000  1.025000000  0.00000000000  0.000000000000000
%f  0.0000000  0.000000000  0.00000000000  0.000000000000000
%i    0    0    0    0      0      0      0      0         0
%i    0    0    0    0      0      0      0      0         0
/* RAPID ORBIT COMBINATION FROM WEIGHTED AVERAGE OF:        
/* cod emr esa gfz jpl ngs sio usn whu                      
/* REFERENCED TO IGS TIME (IGST) AND TO WEIGHTED MEAN POLE: 
/* PCV:IGS14_1977 OL/AL:FES2004  NONE     Y  ORB:CMB CLK:CMB
*  2017 12 29 21 45  0.00000000
PG01 -22573.656065 -14089.025426  -2508.398846    -20.238793  6  6  6 154       
PG02   4651.191221  17803.244094  19790.471884    242.283701  7  5  7 120       
PG03 -13096.814306 -14517.155932  17976.464655    -18.877416  6  3  1 122       
PG04   8646.834869 -21089.500010  13161.629142 999999.999999
PG05   2660.084751  26264.926195  -1690.600111    -18.367705  9  8  7 124       
PG06  -7933.360943  12797.065368  21906.770718    414.202640  7  6  5 101       
PG07 -23645.056050  -3716.238435 -11774.361371    259.002445  8  5  6 114       
PG08  -8898.680155 -12133.236456 -21832.946789    -85.836725  7  8  6 128       
PG09 -23512.143042   5982.965760  10783.981468    488.214785  5  7  6 114       
PG10  11272.222290 -16875.755265 -17031.034126    137.836518  6  7  6 103       
PG11 -21753.390511 -10622.494653 -11341.715975   -732.351124  5  7  6 140       
PG12  10483.609118  17859.223614  16576.702858    358.052526 10  6  7 105       
PG13   -157.729718  16177.728970 -21185.594905    -95.050992  5  6  7 121       
PG14  15045.673241 -17898.514255  12716.587558    -91.467146  6  5  6 125       
PG15  11775.469356  11108.015369 -21287.978573   -357.394031  7  5  5 122       
PG16   -588.461154 -26203.520993  -2652.301402     34.839717  8  6  3  99       
PG17 -21104.503625  15405.531379   4700.184675   -134.670410  7  6  8  71       
PG18  15081.803673  -5289.799178 -20601.306687    633.594558  4  5  5 106       
PG19 -17080.203178  16939.834025  11211.537621   -466.938456  5  7  6  82       
PG20  14135.552686  16323.892670 -15642.869890    496.925753  9  6  7 129       
PG21  23024.996565    911.964909 -12459.452481   -447.352290  6  5  5 130       
PG22 -11416.540272 -20507.941187  12646.432064   -239.130651 10  8  6  88       
PG23 -18796.852915  -4080.073432  18748.415920   -219.040321  9  5  5 118       
PG24  21517.373082  14857.749067  -5543.926153    -44.105222  6  5  5  97       
PG25  14744.002548   4197.153698  21557.579915   -513.818691  5  4  5 104       
PG26   4795.960606 -24600.333941   8610.217335   -306.734696  6  4  5 118       
PG27   4136.449946 -17911.521794 -19139.076313    359.431406  4  5  6 128       
PG28 -12839.714150  13323.946263 -18432.680772    675.281822  5  5  3  82       
PG29  22232.003772  -1148.677745  14468.122943    518.438145  8  8  7 123       
PG30 -18673.463530   4270.910455 -18451.750828    116.887788  2  8  7 112       
PG31   7700.372790 -13042.193156  21870.404299    152.183297  5  4  5 114       
PG32  19883.406138 -16830.636523   5011.748174   -531.675114  6  6  3  94       
*  2017 12 29 22  0  0.00000000
PG01 -22099.417113 -14080.227026  -5320.006874    -20.241215  7  7  6 112       
PG02   2580.153443  17013.806692  20838.458842    242.274480  7  4  7 117       
PG03 -13073.411474 -16482.152057  16219.426843    -18.871677  6  3  2 118       
PG04   8889.959610 -19422.798321  15368.000669 999999.999999
PG05   2352.472378  26312.352823   1149.576206    -18.366487  9  7  6 125       
PG06 -10154.862623  11691.878782  21606.030423    414.203157  7  6  5  81       
PG07 -24639.037476  -4450.108687  -9300.125803    258.997386  8  5  6 125       
PG08  -6830.402971 -13543.599945 -21737.919680    -85.837720  7  8  7 134       
PG09 -22511.410748   5010.963323  13146.922590    488.218136  5  7  6  97       
PG10  11572.296907 -14840.039996 -18658.317733    137.842044  6  7  6 113       
PG11 -20375.056755 -10891.967914 -13553.106966   -732.352088  5  7  5 139       
PG12  10377.320629  19655.109353  14521.429625    358.050492 10  6  7 110       
PG13  -2276.633786  17182.317921 -20248.114345    -95.051362  5  6  7 122       
PG14  16271.259676 -18338.287089  10281.388571    -91.467729  7  6  6 119       
PG15   9885.793430  12603.534796 -21382.440210   -357.393758  6  5  6 116       
PG16   -379.054482 -26323.553662    278.140518     34.839408  7  6  2  75       
PG17 -21492.438196  15404.261267   1826.629609   -134.667973  7  6  8  79       
PG18  15424.945778  -2802.441106 -20843.105831    633.594621  3  6  5 114       
PG19 -18186.798257  17341.396295   8643.558063   -466.936533  5  7  6  91       
PG20  14176.411651  17999.890183 -13620.449039    496.926620 10  6  8 127       
PG21  24198.680153   1724.721862 -10075.144360   -447.349107  7  5  5 132       
PG22 -11277.730892 -21824.051334  10305.647839   -239.142110 10  8  7 106       
PG23 -17081.334387  -5397.515242  19993.978994   -219.040178  9  5  5 114       
PG24  20705.172371  14789.223827  -8201.968731    -44.105059  7  5  6 104       
PG25  14860.739045   6648.380954  20875.032818   -513.824193  5  4  5 113       
PG26   5135.892332 -23490.838561  11150.924509   -306.722090  6  3  5 131       
PG27   5938.744816 -18981.667967 -17542.081331    359.433612  4  5  6 121       
PG28 -12901.971352  11016.924022 -19811.167515    675.284757  6  6  3  95       
PG29  20775.677308   -130.831208  16530.512655    518.433598  9  7  7 127       
PG30 -20356.595392   3142.918959 -16840.886280    116.885050     8  8 111       
PG31   9890.720017 -11884.136926  21684.740228    152.180799  5  3  5 112       
PG32  20373.846922 -16841.758674   2199.095355   -531.676162  6  6  3  84       
*  2017 12 29 22 15  0.00000000
PG01 -21339.492666 -13975.288631  -8041.872771    -20.243639  8  7  6 121       
PG02    379.224494  16300.060080  21546.023922    242.265475  7  4  6 117       
PG03 -13125.267241 -18232.322677  14183.386088    -18.865876  6  4  2 111       
PG04   9247.447026 -17535.031344  17302.443321 999999.999999
PG05   2000.227081  26056.827379   3969.692104    -18.365831  9  7  6 127       
PG06 -12381.509806  10728.426379  20934.465222    414.203694  6  6  5  90       
PG07 -25406.657297  -5011.956951  -6668.456741    258.992493  8  5  7 118       
PG08  -4864.358505 -15042.645530 -21266.610451    -85.839826  7  8  7 142       
PG09 -21360.361855   3832.621854  15283.251401    488.221475  5  7  6  98       
PG10  11998.608068 -12658.495040 -19962.365409    137.847695  6  7  6 116       
PG11 -18781.348693 -11220.665431 -15537.106763   -732.353167  6  7  4 146       
PG12  10356.535191  21204.850465  12215.937319    358.049200 10  5  7 102       
PG13  -4231.265221  18235.615652 -18965.850539    -95.051391  6  5  7 116       
PG14  17235.481756 -18685.755856   7669.757031    -91.468189  8  6  6 122       
PG15   8073.443880  14183.220665 -21115.391528   -357.393738  6  5  6 117       
PG16   -159.046807 -26119.326359   3203.653167     34.839126  7  5  2  99       
PG17 -21611.335197  15235.494652  -1078.520284   -134.665583  7  6  7 103       
PG18  15879.897810   -328.595687 -20706.187875    633.594999  2  6  4 104       
PG19 -19012.338517  17646.186084   5927.019945   -466.934638  6  7  6  80       
PG20  14241.349485  19439.495674 -11366.111572    496.927386 10  6  8 124       
PG21  25141.679698   2375.124020  -7511.553724   -447.345326  8  5  5 131       
PG22 -11150.673055 -22878.799692   7789.095250   -239.153923 10  7  8 111       
PG23 -15338.002106  -6875.423655  20906.300609   -219.040459  8  5  5 122       
PG24  19619.093676  14659.156908 -10721.571664    -44.104268  7  5  6  88       
PG25  15097.808981   8989.305731  19829.726715   -513.829764  5  5  5 112       
PG26   5571.494598 -22126.080008  13498.535194   -306.709403  5  3  5 125       
PG27   7524.705825 -20027.619242 -15641.845607    359.435806  4  6  7 117       
PG28 -13097.243434   8573.867682 -20829.743069    675.287884  6  6  3  87       
PG29  19197.375790   1088.155220  18308.107785    518.428909  9  7  7 130       
PG30 -21915.302526   2187.634838 -14941.701614    116.882330     8  8 110       
PG31  12097.851599 -10863.130029  21128.971283    152.178690  6  3  5 115       
PG32  20609.235254 -16681.653204   -651.554193   -531.677197  7  7  4  89       
EOF
